STARLINK-37021
1 68105U 26044E   26092.83335647 -.01765825  00000+0 -32935-1 0  9992
2 68105  97.2855  54.0743 0001633  91.0008 308.2815 15.52060281  5239
